SL-3 R/B                
1 13403U 82079B   26068.60126245  .00008191  00000+0  32627-3 0  9996
2 13403  81.1482 193.1813 0025053 165.1589 195.0386 15.24799288377681
SL-14 R/B               
1 13553U 82092B   26068.65376751  .00000575  00000+0  61868-4 0  9999
2 13553  82.5696 141.4332 0019002 303.6909 172.1700 14.86666326328925
SL-3 R/B                
1 13819U 83010B   26068.30802178  .00019052  00000+0  38268-3 0  9991
2 13819  81.1061   2.7152 0018055  52.3179 307.9700 15.46341007357882
SL-3 R/B                
1 14208U 83075B   26068.62205888  .00012866  00000+0  33944-3 0  9997
2 14208  97.6146  73.1966 0020117 226.1576 133.8007 15.38415606330144
COSMOS 1536             
1 14699U 84013A   26068.52292051  .00007251  00000+0  29910-3 0  9991
2 14699  82.5428 108.0163 0012473 284.1309  75.8542 15.23821576272599
SL-14 R/B               
1 14820U 84027B   26068.55847112  .00000656  00000+0  72200-4 0  9992
2 14820  82.5386 245.1358 0017343 338.4430  21.6054 14.85976300247611
SL-8 R/B                
1 15483U 85006B   26068.65923941  .00000353  00000+0  12580-3 0  9990
2 15483  74.0433 261.2045 0018446 179.0399 248.6602 14.37782793154026
SL-12 R/B(2)            
1 15772U 85042D   26068.50087354  .00000038  00000+0  38313-4 0  9997
2 15772  71.1062  88.1277 0033255 128.4726  23.4074 14.21982311114369
SL-14 R/B               
1 15945U 85069B   26068.34134390  .00000704  00000+0  76820-4 0  9998
2 15945  82.5285  25.2603 0018439 188.8548 171.2347 14.86432515172780
SL-16 R/B               
1 16182U 85097B   26068.64308389 -.00000195  00000+0 -73507-4 0  9992
2 16182  71.0028 140.6527 0009922 259.8779 209.8797 14.16598844 87223
SL-14 R/B               
1 16496U 86006B   26068.58769403  .00000809  00000+0  83607-4 0  9994
2 16496  82.5233 259.8333 0075052 273.1411  86.1221 14.86814645149193
COSMOS 1743             
1 16719U 86034A   26068.44944840  .00034437  00000+0  44928-3 0  9994
2 16719  82.5296  74.0830 0001656 296.6457  63.4629 15.58526486180219
